1 27847U 03031H   17090.92901813  .00000042  00000-0  38649-4 0  9995
2 27847  98.6853  99.8576 0009292 178.1028 182.0187 14.22043889713438
1 27847U 03031H   17091.91407400  .00000046  00000-0  40525-4 0  9998
2 27847  98.6853 100.8277 0009370 175.2682 184.8586 14.22044089713571
1 27847U 03031H   17092.68804651  .00000046  00000-0  40547-4 0  9996
2 27847  98.6853 101.5900 0009388 173.0748 187.0561 14.22044180713682
1 27847U 03031H   17093.95454678  .00000052  00000-0  43278-4 0  9998
2 27847  98.6852 102.8374 0009454 169.4832 190.6545 14.22044417713862
1 27847U 03031H   17094.93960229  .00000059  00000-0  46573-4 0  9999
2 27847  98.6851 103.8076 0009523 166.7272 193.4158 14.22044664714008
1 27847U 03031H   17095.92465766  .00000061  00000-0  47426-4 0  9996
2 27847  98.6851 104.7777 0009580 163.9627 196.1856 14.22044873714144
1 27847U 03031H   17096.69862968  .00000056  00000-0  44985-4 0  9997
2 27847  98.6850 105.5400 0009607 161.7673 198.3851 14.22044974714255
1 27847U 03031H   17097.96512911  .00000053  00000-0  43856-4 0  9991
2 27847  98.6849 106.7874 0009675 158.2624 201.8966 14.22045212714436
1 27847U 03031H   17098.95018401  .00000053  00000-0  43567-4 0  9995
2 27847  98.6849 107.7575 0009727 155.5464 204.6177 14.22045436714573
1 27847U 03031H   17099.93523870  .00000050  00000-0  42373-4 0  9996
2 27847  98.6848 108.7277 0009792 152.8780 207.2911 14.22045675714711
1 27847U 03031H   17100.70921016  .00000043  00000-0  39035-4 0  9991
2 27847  98.6848 109.4900 0009835 150.7650 209.4080 14.22045801714827
1 27847U 03031H   17100.99065429  .00000042  00000-0  38806-4 0  9993
2 27847  98.6848 109.7671 0009849 150.0126 210.1618 14.22045867714863
1 27847U 03031H   17102.67931907  .00000033  00000-0  34681-4 0  9990
2 27847  98.6848 111.4303 0009928 145.4152 214.7673 14.22046087715104
1 27847U 03031H   17103.94581740  .00000029  00000-0  32809-4 0  9992
2 27847  98.6848 112.6776 0009985 141.9909 218.1975 14.22046290715283
1 27847U 03031H   17104.93087144  .00000028  00000-0  32463-4 0  9996
2 27847  98.6848 113.6478 0010035 139.3756 220.8172 14.22046466715422
1 27847U 03031H   17105.63448141  .00000028  00000-0  32263-4 0  9990
2 27847  98.6848 114.3408 0010073 137.5001 222.6958 14.22046575715522
1 27847U 03031H   17106.68989623  .00000032  00000-0  34084-4 0  9999
2 27847  98.6849 115.3802 0010119 134.7058 225.4945 14.22046728715677
1 27847U 03031H   17107.95639388  .00000042  00000-0  38624-4 0  9995
2 27847  98.6848 116.6276 0010171 131.3682 228.8372 14.22046962715850
1 27847U 03031H   17108.94144741  .00000048  00000-0  41218-4 0  9998
2 27847  98.6847 117.5978 0010205 128.7616 231.4475 14.22047160715993
1 27847U 03031H   17109.71541789  .00000051  00000-0  42772-4 0  9997
2 27847  98.6847 118.3601 0010235 126.7239 233.4880 14.22047310716100
1 27847U 03031H   17110.91155387  .00000059  00000-0  46444-4 0  9994
2 27847  98.6846 119.5381 0010273 123.5871 236.6289 14.22047563716272
1 27847U 03031H   17111.96696781  .00000066  00000-0  49382-4 0  9990
2 27847  98.6846 120.5776 0010309 120.8551 239.3642 14.22047772716429
1 27847U 03031H   17112.95202047  .00000080  00000-0  55996-4 0  9992
2 27847  98.6845 121.5477 0010343 118.3596 241.8626 14.22048098716563
1 27847U 03031H   17113.65562939  .00000087  00000-0  58987-4 0  9999
2 27847  98.6845 122.2407 0010364 116.5433 243.6808 14.22048320716668
1 27847U 03031H   17114.57032079  .00000082  00000-0  56866-4 0  9997
2 27847  98.6845 123.1416 0010393 114.2445 245.9819 14.22048550716794
1 27847U 03031H   17115.83681630  .00000069  00000-0  51044-4 0  9998
2 27847  98.6845 124.3890 0010422 111.0299 249.1995 14.22048781716975
1 27847U 03031H   17116.75150731  .00000061  00000-0  47150-4 0  9998
2 27847  98.6845 125.2898 0010440 108.6528 251.5784 14.22048955717102
1 27847U 03031H   17117.94764151  .00000044  00000-0  39480-4 0  9995
2 27847  98.6844 126.4679 0010455 105.5129 254.7204 14.22049166717275
1 27847U 03031H   17118.93269297  .00000038  00000-0  36731-4 0  9995
2 27847  98.6844 127.4380 0010470 102.9911 257.2436 14.22049365717414
1 27847U 03031H   17119.70666187  .00000035  00000-0  35474-4 0  9990
2 27847  98.6844 128.2003 0010480 100.9526 259.2831 14.22049493717521
1 27847U 03031H   17120.69171311  .00000035  00000-0  35333-4 0  9994
2 27847  98.6843 129.1705 0010489  98.3650 261.8717 14.22049638717664
1 27847U 03031H   17121.95820729  .00000041  00000-0  38207-4 0  9998
2 27847  98.6843 130.4178 0010499  95.1879 265.0497 14.22049877717848
1 27847U 03031H   17122.52109351  .00000043  00000-0  39105-4 0  9993
2 27847  98.6843 130.9722 0010506  93.7694 266.4685 14.22049997717922
1 27847U 03031H   17122.94325814  .00000043  00000-0  39182-4 0  9998
2 27847  98.6842 131.3879 0010506  92.7048 267.5332 14.22050063717984
1 27847U 03031H   17123.57650505  .00000043  00000-0  39217-4 0  9995
2 27847  98.6842 132.0116 0010512  91.0513 269.1869 14.22050174718079
1 27847U 03031H   17123.92830886  .00000042  00000-0  38614-4 0  9995
2 27847  98.6842 132.3580 0010510  90.1367 270.1015 14.22050214718128
1 27847U 03031H   17124.56155564  .00000043  00000-0  39077-4 0  9994
2 27847  98.6842 132.9817 0010514  88.5148 271.7234 14.22050322718219
1 27847U 03031H   17124.98372011  .00000041  00000-0  38062-4 0  9999
2 27847  98.6841 133.3975 0010509  87.5007 272.7374 14.22050369718278
1 27847U 03031H   17125.54660607  .00000040  00000-0  37572-4 0  9997
2 27847  98.6841 133.9519 0010509  86.0470 274.1909 14.22050442718357
1 27847U 03031H   17126.53165635  .00000043  00000-0  39076-4 0  9992
2 27847  98.6841 134.9220 0010507  83.4789 276.7584 14.22050622718491
1 27847U 03031H   17126.95382067  .00000041  00000-0  38425-4 0  9993
2 27847  98.6840 135.3377 0010498  82.4413 277.7957 14.22050692718559
1 27847U 03031H   17127.51670643  .00000039  00000-0  37529-4 0  9997
2 27847  98.6840 135.8920 0010495  81.0082 279.2283 14.22050797718636
1 27847U 03031H   17127.93887069  .00000036  00000-0  36017-4 0  9993
2 27847  98.6839 136.3078 0010488  79.9466 280.2894 14.22050854718698
1 27847U 03031H   17128.57211704  .00000033  00000-0  34541-4 0  9998
2 27847  98.6839 136.9314 0010484  78.2968 281.9386 14.22050957718780
1 27847U 03031H   17128.92392055  .00000028  00000-0  32548-4 0  9995
2 27847  98.6839 137.2779 0010474  77.4430 282.7918 14.22050978718832
1 27847U 03031H   17129.27572405  .00000027  00000-0  31773-4 0  9991
2 27847  98.6839 137.6244 0010471  76.5192 283.7152 14.22051013718882
1 27847U 03031H   17129.69788819  .00000025  00000-0  30950-4 0  9999
2 27847  98.6839 138.0401 0010464  75.4288 284.8050 14.22051066718942
1 27847U 03031H   17130.26077369  .00000024  00000-0  30626-4 0  9994
2 27847  98.6839 138.5945 0010453  73.9936 286.2392 14.22051145719024
1 27847U 03031H   17130.47185574  .00000023  00000-0  30190-4 0  9990
2 27847  98.6838 138.8023 0010447  73.4893 286.7431 14.22051186719050
1 27847U 03031H   17130.96438048  .00000025  00000-0  31112-4 0  9998
2 27847  98.6838 139.2874 0010433  72.2331 287.9984 14.22051270719126
1 27847U 03031H   17131.52726590  .00000023  00000-0  30283-4 0  9999
2 27847  98.6838 139.8418 0010425  70.7884 289.4421 14.22051351719205
1 27847U 03031H   17131.94942994  .00000020  00000-0  28646-4 0  9990
2 27847  98.6838 140.2575 0010413  69.7011 290.5285 14.22051385719266
1 27847U 03031H   17132.51231527  .00000019  00000-0  28082-4 0  9999
2 27847  98.6839 140.8119 0010405  68.2330 291.9954 14.22051478719346
1 27847U 03031H   17132.93447923  .00000017  00000-0  27262-4 0  9991
2 27847  98.6838 141.2276 0010396  67.0982 293.1292 14.22051524719401
1 27847U 03031H   17133.49736450  .00000014  00000-0  26117-4 0  9994
2 27847  98.6838 141.7820 0010389  65.6059 294.6202 14.22051591719481
1 27847U 03031H   17133.63808577  .00000015  00000-0  26637-4 0  9998
2 27847  98.6838 141.9206 0010383  65.2550 294.9707 14.22051617719502
1 27847U 03031H   17134.48241356  .00000014  00000-0  26090-4 0  9990
2 27847  98.6838 142.7521 0010359  63.0716 297.1519 14.22051708719624
1 27847U 03031H   17134.69349548  .00000014  00000-0  25924-4 0  9990
2 27847  98.6838 142.9600 0010350  62.5460 297.6768 14.22051715719657
1 27847U 03031H   17135.46746256  .00000017  00000-0  27418-4 0  9996
2 27847  98.6838 143.7223 0010328  60.5422 299.6785 14.22051821719769
1 27847U 03031H   17135.95998700  .00000019  00000-0  28283-4 0  9996
2 27847  98.6837 144.2073 0010311  59.2523 300.9669 14.22051882719838
1 27847U 03031H   17136.52287206  .00000022  00000-0  29484-4 0  9990
2 27847  98.6838 144.7616 0010292  57.8258 302.3917 14.22051973719916
1 27847U 03031H   17136.94503584  .00000021  00000-0  29084-4 0  9991
2 27847  98.6837 145.1774 0010278  56.7126 303.5035 14.22052008719971
1 27847U 03031H   17137.50792084  .00000021  00000-0  29088-4 0  9993
2 27847  98.6837 145.7317 0010259  55.2828 304.9314 14.22052085720053
1 27847U 03031H   17137.93008454  .00000022  00000-0  29499-4 0  9998
2 27847  98.6837 146.1475 0010242  54.1663 306.0465 14.22052130720118
1 27847U 03031H   17138.56333008  .00000023  00000-0  30122-4 0  9990
2 27847  98.6837 146.7711 0010219  52.5272 307.6833 14.22052209720202
1 27847U 03031H   17138.91513311  .00000024  00000-0  30734-4 0  9996
2 27847  98.6836 147.1176 0010206  51.5686 308.6406 14.22052245720257
1 27847U 03031H   17139.54837854  .00000030  00000-0  33217-4 0  9993
2 27847  98.6836 147.7412 0010185  49.9005 310.3064 14.22052352720347
1 27847U 03031H   17140.53342681  .00000041  00000-0  38261-4 0  9999
2 27847  98.6835 148.7113 0010146  47.3094 312.8936 14.22052563720486
1 27847U 03031H   17140.95559029  .00000044  00000-0  39400-4 0  9990
2 27847  98.6834 149.1270 0010123  46.1814 314.0199 14.22052645720549
1 27847U 03031H   17141.58883549  .00000047  00000-0  40749-4 0  9998
2 27847  98.6834 149.7507 0010098  44.5337 315.6650 14.22052778720637
1 27847U 03031H   17141.94063831  .00000047  00000-0  40842-4 0  9996
2 27847  98.6834 150.0972 0010078  43.6042 316.5931 14.22052854720681
